ONEWEB-0683             
1 56719U 23068K   25357.21086128 -.00000169  00000+0 -48205-3 0  9996
2 56719  87.9011 294.2988 0001523  82.8908 277.2396 13.15548568126285
ONEWEB-0684             
1 56720U 23068L   25357.06667077  .00000068  00000+0  14608-3 0  9995
2 56720  87.9015 294.3220 0002273  38.6042 321.5251 13.15548301126099
ONEWEB-0686             
1 56721U 23068M   25357.19668449  .00000205  00000+0  50999-3 0  9990
2 56721  87.9038 263.8523 0001341  67.7655 292.3617 13.15706352128556
ONEWEB-0694             
1 56722U 23068N   25357.20146988  .00000041  00000+0  73199-4 0  9998
2 56722  87.9061 263.7819 0001244  86.0823 274.0450 13.16595330128615
ONEWEB-0696             
1 56723U 23068P   25357.25205248 -.00000250  00000+0 -69935-3 0  9995
2 56723  87.9000 294.3369 0001998  68.1893 291.9450 13.15548654126233
ONEWEB-0703             
1 56724U 23068Q   25356.88127241 -.00000366  00000+0 -10066-2 0  9998
2 56724  87.8997 294.3925 0002760  66.8635 293.2786 13.15547886126078
ONEWEB-0721             
1 56725U 23068R   25357.15576486  .00000023  00000+0  21239-4 0  9993
2 56725  86.6803 141.6756 0001463  99.5880 260.5419 13.22454869134673
ONEWEB-0015             
1 61594U 24188A   25357.21651699  .00000107  00000+0  26722-3 0  9998
2 61594  87.8847  56.1400 0002218 112.6063 247.5299 13.11418214 61390
ONEWEB-0687             
1 61595U 24188B   25357.13480205  .00000018  00000+0  13673-4 0  9996
2 61595  87.9090  40.9001 0001803 117.4017 242.7298 13.17648165 62710
ONEWEB-0688             
1 61596U 24188C   25357.16349422  .00000054  00000+0  10474-3 0  9990
2 61596  87.9085  40.8944 0002863 118.8890 241.2529 13.17648314 62718
ONEWEB-0689             
1 61597U 24188D   25357.17413054  .00000269  00000+0  72429-3 0  9991
2 61597  87.8835  56.0827 0001627 115.3080 244.8216 13.11413583 61386
ONEWEB-0690             
1 61598U 24188E   25357.18429526 -.00000247  00000+0 -73271-3 0  9998
2 61598  87.8860  56.0959 0002191  85.2946 274.8432 13.11413451 61561
ONEWEB-0691             
1 61599U 24188F   25357.17920983  .00000028  00000+0  42221-4 0  9998
2 61599  87.8831  55.9959 0002067 113.4638 246.6708 13.11412084 61410
ONEWEB-0692             
1 61600U 24188G   25357.19954646 -.00000577  00000+0 -16644-2 0  9995
2 61600  87.8843  56.1369 0000924  84.6418 275.4816 13.11416491 61404
ONEWEB-0693             
1 61601U 24188H   25357.17530734  .00000038  00000+0  65063-4 0  9993
2 61601  87.9092  40.9121 0002508  87.6301 272.5117 13.17649978 62703
ONEWEB-0695             
1 61602U 24188J   25357.17582379  .00000192  00000+0  50506-3 0  9992
2 61602  87.8846  56.1306 0001237 109.2858 250.8404 13.11413461 61392
ONEWEB-0697             
1 61603U 24188K   25357.20802821 -.00000359  00000+0 -10493-2 0  9991
2 61603  87.8849  56.1144 0001051  84.9214 275.2034 13.11417607 61380
